Chart 1: {"task": "summary", "number_rows": 600, "field": [{"name": "n", "type": "string", "entropy": 1000, "unique": 20, "interesting": "true"}, {"name": "q1", "type": "number", "entropy": 3770, "unique": 600, "interesting": "true"}, {"name": "q2", "type": "number", "entropy": 862, "unique": 600}], "view": [{"coordinates": "cartesian", "mark": [{"type": "point", "encoding": [{"channel": "y", "field": "q1"}, {"channel": "x", "field": "q2"}]}], "scale": [{"channel": "y", "type": "linear", "zero": "true"}, {"channel": "x", "type": "linear", "zero": "true"}], "facet": [{"channel": "row", "field": "n"}]}]}

Chart 2: {"task": "summary", "number_rows": 600, "field": [{"name": "n", "type": "string", "entropy": 1000, "unique": 20, "interesting": "true"}, {"name": "q1", "type": "number", "entropy": 3770, "unique": 600, "interesting": "true"}, {"name": "q2", "type": "number", "entropy": 862, "unique": 600}], "view": [{"coordinates": "cartesian", "mark": [{"type": "point", "encoding": [{"channel": "size", "field": "q1"}, {"channel": "x", "field": "q2"}, {"channel": "y", "field": "n"}]}], "scale": [{"channel": "size", "type": "linear", "zero": "true"}, {"channel": "x", "type": "linear", "zero": "true"}, {"channel": "y", "type": "ordinal"}]}]}

c_c_point                  1
c_d_overlap_point         -1
encoding                  -1
encoding_field            -1
high_cardinality_size     -1
interesting_row            1
interesting_size          -1
linear_size               -1
linear_y                   1
ordinal_scale             -1
ordinal_y                 -1
size_entropy_high         -1
summary_continuous_size   -1
summary_continuous_y       1
summary_discrete_y        -1
summary_facet              1
x_row                      1
y_row                      1