Chart 1: {"task": "summary", "number_rows": 30, "field": [{"name": "n", "type": "string", "entropy": 1000, "unique": 10, "interesting": "true"}, {"name": "q1", "type": "number", "entropy": 1402, "unique": 30, "interesting": "true"}, {"name": "q2", "type": "number", "entropy": 3874, "unique": 30}], "view": [{"coordinates": "cartesian", "mark": [{"type": "point", "encoding": [{"channel": "color", "field": "q1"}, {"channel": "x", "field": "q2"}, {"channel": "y", "field": "n"}]}], "scale": [{"channel": "color", "type": "linear", "zero": "true"}, {"channel": "x", "type": "linear", "zero": "true"}, {"channel": "y", "type": "ordinal"}]}]}

Chart 2: {"task": "summary", "number_rows": 30, "field": [{"name": "n", "type": "string", "entropy": 1000, "unique": 10, "interesting": "true"}, {"name": "q1", "type": "number", "entropy": 1402, "unique": 30, "interesting": "true"}, {"name": "q2", "type": "number", "entropy": 3874, "unique": 30}], "view": [{"coordinates": "cartesian", "mark": [{"type": "point", "encoding": [{"channel": "x", "field": "q1"}, {"channel": "y", "field": "q2"}]}], "scale": [{"channel": "x", "type": "linear", "zero": "true"}, {"channel": "y", "type": "linear", "zero": "true"}], "facet": [{"channel": "row", "field": "n"}]}]}

c_c_point                  -1
c_d_overlap_point           1
color_entropy_low           1
encoding                    1
encoding_field              1
interesting_color           1
interesting_row            -1
interesting_x              -1
interesting_y               1
linear_color                1
linear_y                   -1
ordinal_scale               1
ordinal_y                   1
summary_continuous_color    1
summary_continuous_x       -1
summary_discrete_y          1
summary_facet              -1
x_row                      -1
y_row                      -1